[ {"CCSDS_OMM_VERS": "2.0", "COMMENT": "GENERATED VIA SPACE-TRACK.ORG API", "CREATION_DATE": "2021-12-05T20:11:25", "ORIGINATOR": "18 SPCS", "OBJECT_NAME": "ARIANE 2 DEB", "OBJECT_ID": "1988-040C", "CENTER_NAME": "EARTH", "REF_FRAME": "TEME", "TIME_SYSTEM": "UTC", "MEAN_ELEMENT_THEORY": "SGP4", "EPOCH": "2021-12-05T05:59:24.022176", "MEAN_MOTION": "2.29004012", "ECCENTRICITY": "0.71639270", "INCLINATION": "7.4213", "RA_OF_ASC_NODE": "283.5430", "ARG_OF_PERICENTER": "253.5022", "MEAN_ANOMALY": "22.9883", "EPHEMERIS_TYPE": "0", "CLASSIFICATION_TYPE": "U", "NORAD_CAT_ID": "27593", "ELEMENT_SET_NO": "999", "REV_AT_EPOCH": "16179", "BSTAR": "-0.00037557000000", "MEAN_MOTION_DOT": "-0.00000081", "MEAN_MOTION_DDOT": "0.0000000000000", "SEMIMAJOR_AXIS": "24313.069", "PERIOD": "628.810", "APOAPSIS": "35352.639", "PERIAPSIS": "517.229", "OBJECT_TYPE": "DEBRIS", "RCS_SIZE": "LARGE", "COUNTRY_CODE": "FR", "LAUNCH_DATE": "1988-05-17", "SITE": "FRGUI", "DECAY_DATE": null, "FILE": "3233179", "GP_ID": "191124361", "TLE_LINE0": "0 ARIANE 2 DEB", "TLE_LINE1": "1 27593U 88040C   21339.24958359 -.00000081  00000-0 -37557-3 0  9990", "TLE_LINE2": "2 27593   7.4213 283.5430 7163927 253.5022  22.9883  2.29004012161790"}, {"CCSDS_OMM_VERS": "2.0", "COMMENT": "GENERATED VIA SPACE-TRACK.ORG API", "CREATION_DATE": "2021-12-06T02:57:56", "ORIGINATOR": "18 SPCS", "OBJECT_NAME": "ARIANE 3 DEB", "OBJECT_ID": "1984-114E", "CENTER_NAME": "EARTH", "REF_FRAME": "TEME", "TIME_SYSTEM": "UTC", "MEAN_ELEMENT_THEORY": "SGP4", "EPOCH": "2021-12-05T18:43:50.674368", "MEAN_MOTION": "10.51688937", "ECCENTRICITY": "0.24412030", "INCLINATION": "6.7547", "RA_OF_ASC_NODE": "338.3683", "ARG_OF_PERICENTER": "4.8887", "MEAN_ANOMALY": "172.9549", "EPHEMERIS_TYPE": "0", "CLASSIFICATION_TYPE": "U", "NORAD_CAT_ID": "27740", "ELEMENT_SET_NO": "999", "REV_AT_EPOCH": "88728", "BSTAR": "0.00126620000000", "MEAN_MOTION_DOT": "0.00041237", "MEAN_MOTION_DDOT": "-0.0000064406000", "SEMIMAJOR_AXIS": "8799.884", "PERIOD": "136.923", "APOAPSIS": "4569.980", "PERIAPSIS": "273.519", "OBJECT_TYPE": "DEBRIS", "RCS_SIZE": "LARGE", "COUNTRY_CODE": "FR", "LAUNCH_DATE": "1984-11-10", "SITE": "FRGUI", "DECAY_DATE": null, "FILE": "3233515", "GP_ID": "191156010", "TLE_LINE0": "0 ARIANE 3 DEB", "TLE_LINE1": "1 27740U 84114E   21339.78044762  .00041237 -64406-5  12662-2 0  9996", "TLE_LINE2": "2 27740   6.7547 338.3683 2441203   4.8887 172.9549 10.51688937887284"}, {"CCSDS_OMM_VERS": "2.0", "COMMENT": "GENERATED VIA SPACE-TRACK.ORG API", "CREATION_DATE": "2021-12-06T06:26:11", "ORIGINATOR": "18 SPCS", "OBJECT_NAME": "ARIANE 5 R/B", "OBJECT_ID": "2003-043B", "CENTER_NAME": "EARTH", "REF_FRAME": "TEME", "TIME_SYSTEM": "UTC", "MEAN_ELEMENT_THEORY": "SGP4", "EPOCH": "2021-12-05T21:22:05.185056", "MEAN_MOTION": "2.23497632", "ECCENTRICITY": "0.71569220", "INCLINATION": "7.4569", "RA_OF_ASC_NODE": "225.6039", "ARG_OF_PERICENTER": "334.9371", "MEAN_ANOMALY": "3.2067", "EPHEMERIS_TYPE": "0", "CLASSIFICATION_TYPE": "U", "NORAD_CAT_ID": "27946", "ELEMENT_SET_NO": "999", "REV_AT_EPOCH": "14858", "BSTAR": "0.00054571000000", "MEAN_MOTION_DOT": "-0.00000037", "MEAN_MOTION_DDOT": "0.0000000000000", "SEMIMAJOR_AXIS": "24710.786", "PERIOD": "644.302", "APOAPSIS": "36017.968", "PERIAPSIS": "647.334", "OBJECT_TYPE": "ROCKET BODY", "RCS_SIZE": "LARGE", "COUNTRY_CODE": "FR", "LAUNCH_DATE": "2003-09-27", "SITE": "FRGUI", "DECAY_DATE": null, "FILE": "3233531", "GP_ID": "191173094", "TLE_LINE0": "0 ARIANE 5 R/B", "TLE_LINE1": "1 27946U 03043B   21339.89033779 -.00000037  00000-0  54571-3 0  9998", "TLE_LINE2": "2 27946   7.4569 225.6039 7156922 334.9371   3.2067  2.23497632148582"}, {"CCSDS_OMM_VERS": "2.0", "COMMENT": "GENERATED VIA SPACE-TRACK.ORG API", "CREATION_DATE": "2021-12-06T07:06:20", "ORIGINATOR": "18 SPCS", "OBJECT_NAME": "ATLAS 3B CENTAUR R/B", "OBJECT_ID": "2003-057B", "CENTER_NAME": "EARTH", "REF_FRAME": "TEME", "TIME_SYSTEM": "UTC", "MEAN_ELEMENT_THEORY": "SGP4", "EPOCH": "2021-12-06T03:50:30.276096", "MEAN_MOTION": "11.85101661", "ECCENTRICITY": "0.18858070", "INCLINATION": "28.0942", "RA_OF_ASC_NODE": "271.6541", "ARG_OF_PERICENTER": "232.5097", "MEAN_ANOMALY": "108.8778", "EPHEMERIS_TYPE": "0", "CLASSIFICATION_TYPE": "U", "NORAD_CAT_ID": "28118", "ELEMENT_SET_NO": "999", "REV_AT_EPOCH": "46038", "BSTAR": "0.00088542000000", "MEAN_MOTION_DOT": "0.00120422", "MEAN_MOTION_DDOT": "-0.0000042308000", "SEMIMAJOR_AXIS": "8126.398", "PERIOD": "121.509", "APOAPSIS": "3280.745", "PERIAPSIS": "215.781", "OBJECT_TYPE": "ROCKET BODY", "RCS_SIZE": "LARGE", "COUNTRY_CODE": "US", "LAUNCH_DATE": "2003-12-18", "SITE": "AFETR", "DECAY_DATE": null, "FILE": "3233717", "GP_ID": "191177254", "TLE_LINE0": "0 ATLAS 3B CENTAUR R/B", "TLE_LINE1": "1 28118U 03057B   21340.16007264  .00120422 -42308-5  88542-3 0  9995", "TLE_LINE2": "2 28118  28.0942 271.6541 1885807 232.5097 108.8778 11.85101661460388"}, {"CCSDS_OMM_VERS": "2.0", "COMMENT": "GENERATED VIA SPACE-TRACK.ORG API", "CREATION_DATE": "2021-12-06T02:57:56", "ORIGINATOR": "18 SPCS", "OBJECT_NAME": "ATLAS 2AS CENTAUR R/B", "OBJECT_ID": "2004-003B", "CENTER_NAME": "EARTH", "REF_FRAME": "TEME", "TIME_SYSTEM": "UTC", "MEAN_ELEMENT_THEORY": "SGP4", "EPOCH": "2021-12-05T17:26:20.107104", "MEAN_MOTION": "3.47929371", "ECCENTRICITY": "0.63835930", "INCLINATION": "12.4348", "RA_OF_ASC_NODE": "344.6427", "ARG_OF_PERICENTER": "221.7061", "MEAN_ANOMALY": "66.2049", "EPHEMERIS_TYPE": "0", "CLASSIFICATION_TYPE": "U", "NORAD_CAT_ID": "28155", "ELEMENT_SET_NO": "999", "REV_AT_EPOCH": "18837", "BSTAR": "0.00084128000000", "MEAN_MOTION_DOT": "0.00003764", "MEAN_MOTION_DDOT": "0.0000000000000", "SEMIMAJOR_AXIS": "18396.750", "PERIOD": "413.877", "APOAPSIS": "23762.352", "PERIAPSIS": "274.879", "OBJECT_TYPE": "ROCKET BODY", "RCS_SIZE": "LARGE", "COUNTRY_CODE": "US", "LAUNCH_DATE": "2004-02-05", "SITE": "AFETR", "DECAY_DATE": null, "FILE": "3233515", "GP_ID": "191156034", "TLE_LINE0": "0 ATLAS 2AS CENTAUR R/B", "TLE_LINE1": "1 28155U 04003B   21339.72662161  .00003764  00000-0  84128-3 0  9993", "TLE_LINE2": "2 28155  12.4348 344.6427 6383593 221.7061  66.2049  3.47929371188370"}, {"CCSDS_OMM_VERS": "2.0", "COMMENT": "GENERATED VIA SPACE-TRACK.ORG API", "CREATION_DATE": "2021-12-06T02:57:56", "ORIGINATOR": "18 SPCS", "OBJECT_NAME": "CZ-2C R/B", "OBJECT_ID": "2004-012C", "CENTER_NAME": "EARTH", "REF_FRAME": "TEME", "TIME_SYSTEM": "UTC", "MEAN_ELEMENT_THEORY": "SGP4", "EPOCH": "2021-12-05T22:36:08.286048", "MEAN_MOTION": "15.11278784", "ECCENTRICITY": "0.00462330", "INCLINATION": "97.7499", "RA_OF_ASC_NODE": "312.7122", "ARG_OF_PERICENTER": "356.8820", "MEAN_ANOMALY": "63.1565", "EPHEMERIS_TYPE": "0", "CLASSIFICATION_TYPE": "U", "NORAD_CAT_ID": "28222", "ELEMENT_SET_NO": "999", "REV_AT_EPOCH": "96699", "BSTAR": "0.00009726100000", "MEAN_MOTION_DOT": "0.00001607", "MEAN_MOTION_DDOT": "0.0000000000000", "SEMIMAJOR_AXIS": "6910.436", "PERIOD": "95.284", "APOAPSIS": "564.250", "PERIAPSIS": "500.352", "OBJECT_TYPE": "ROCKET BODY", "RCS_SIZE": "LARGE", "COUNTRY_CODE": "PRC", "LAUNCH_DATE": "2004-04-18", "SITE": "XSC", "DECAY_DATE": null, "FILE": "3233515", "GP_ID": "191156788", "TLE_LINE0": "0 CZ-2C R/B", "TLE_LINE1": "1 28222U 04012C   21339.94176257  .00001607  00000-0  97261-4 0  9995", "TLE_LINE2": "2 28222  97.7499 312.7122 0046233 356.8820  63.1565 15.11278784966990"}, {"CCSDS_OMM_VERS": "2.0", "COMMENT": "GENERATED VIA SPACE-TRACK.ORG API", "CREATION_DATE": "2021-12-06T02:57:56", "ORIGINATOR": "18 SPCS", "OBJECT_NAME": "GP-B", "OBJECT_ID": "2004-014A", "CENTER_NAME": "EARTH", "REF_FRAME": "TEME", "TIME_SYSTEM": "UTC", "MEAN_ELEMENT_THEORY": "SGP4", "EPOCH": "2021-12-05T19:55:22.032768", "MEAN_MOTION": "14.78870180", "ECCENTRICITY": "0.00033430", "INCLINATION": "89.8162", "RA_OF_ASC_NODE": "86.1858", "ARG_OF_PERICENTER": "91.9140", "MEAN_ANOMALY": "268.2466", "EPHEMERIS_TYPE": "0", "CLASSIFICATION_TYPE": "U", "NORAD_CAT_ID": "28230", "ELEMENT_SET_NO": "999", "REV_AT_EPOCH": "40753", "BSTAR": "0.00002788900000", "MEAN_MOTION_DOT": "0.00000222", "MEAN_MOTION_DDOT": "0.0000000000000", "SEMIMAJOR_AXIS": "7011.030", "PERIOD": "97.372", "APOAPSIS": "635.238", "PERIAPSIS": "630.551", "OBJECT_TYPE": "PAYLOAD", "RCS_SIZE": "LARGE", "COUNTRY_CODE": "US", "LAUNCH_DATE": "2004-04-20", "SITE": "AFWTR", "DECAY_DATE": null, "FILE": "3233515", "GP_ID": "191155536", "TLE_LINE0": "0 GP-B", "TLE_LINE1": "1 28230U 04014A   21339.83011612  .00000222  00000-0  27889-4 0  9998", "TLE_LINE2": "2 28230  89.8162  86.1858 0003343  91.9140 268.2466 14.78870180407531"}, {"CCSDS_OMM_VERS": "2.0", "COMMENT": "GENERATED VIA SPACE-TRACK.ORG API", "CREATION_DATE": "2021-12-06T02:57:56", "ORIGINATOR": "18 SPCS", "OBJECT_NAME": "ARIANE 5 R/B", "OBJECT_ID": "2004-049H", "CENTER_NAME": "EARTH", "REF_FRAME": "TEME", "TIME_SYSTEM": "UTC", "MEAN_ELEMENT_THEORY": "SGP4", "EPOCH": "2021-12-05T21:18:42.255648", "MEAN_MOTION": "14.80194427", "ECCENTRICITY": "0.00914110", "INCLINATION": "98.0834", "RA_OF_ASC_NODE": "90.1581", "ARG_OF_PERICENTER": "340.6210", "MEAN_ANOMALY": "128.5289", "EPHEMERIS_TYPE": "0", "CLASSIFICATION_TYPE": "U", "NORAD_CAT_ID": "28499", "ELEMENT_SET_NO": "999", "REV_AT_EPOCH": "91544", "BSTAR": "0.00002289000000", "MEAN_MOTION_DOT": "0.00000125", "MEAN_MOTION_DDOT": "0.0000000000000", "SEMIMAJOR_AXIS": "7006.847", "PERIOD": "97.285", "APOAPSIS": "692.763", "PERIAPSIS": "564.662", "OBJECT_TYPE": "ROCKET BODY", "RCS_SIZE": "LARGE", "COUNTRY_CODE": "FR", "LAUNCH_DATE": "2004-12-18", "SITE": "FRGUI", "DECAY_DATE": null, "FILE": "3233515", "GP_ID": "191158059", "TLE_LINE0": "0 ARIANE 5 R/B", "TLE_LINE1": "1 28499U 04049H   21339.88798907  .00000125  00000-0  22890-4 0  9996", "TLE_LINE2": "2 28499  98.0834  90.1581 0091411 340.6210 128.5289 14.80194427915440"}]